{"type": "FeatureCollection", "features": [ {"type": "Feature", "properties": {"norad_id": 40315, "name": "COSMOS 2501 (702K)", "group": "gnss", "lat": 62.828639788067555, "lon": -58.70570715337805, "alt_km": 19138.673281995892, "timestamp": "2025-12-18T07:01:54.831353+00:00", "meta": {"OBJECT_NAME": "COSMOS 2501 (702K)", "OBJECT_ID": "2014-075A", "EPOCH": "2025-12-14T09:54:07.365600", "MEAN_MOTION": 2.13101427, "ECCENTRICITY": 0.00201134, "INCLINATION": 63.6139, "RA_OF_ASC_NODE": 196.7672, "ARG_OF_PERICENTER": 204.2903, "MEAN_ANOMALY": 155.6894, "EPHEMERIS_TYPE": 0, "CLASSIFICATION_TYPE": "U", "NORAD_CAT_ID": 40315, "ELEMENT_SET_NO": 999, "REV_AT_EPOCH": 8591, "BSTAR": 0, "MEAN_MOTION_DOT": 9.7e-07, "MEAN_MOTION_DDOT": 0}, "tle": {"line1": "1 40315U 14075A   25348.41258525  .00000097  00000+0  00000+0 0  9998", "line2": "2 40315  63.6139 196.7672 0020113 204.2903 155.6894  2.13101427 85910"}}, "geometry": {"type": "Point", "coordinates": [-58.70570715337805, 62.828639788067555]}}, {"type": "Feature", "properties": {"norad_id": 40534, "name": "GPS BIIF-9  (PRN 26)", "group": "gnss", "lat": 15.678018421978239, "lon": 19.546017649314948, "alt_km": 20327.728104107246, "timestamp": "2025-12-18T07:01:54.831364+00:00", "meta": {"OBJECT_NAME": "GPS BIIF-9  (PRN 26)", "OBJECT_ID": "2015-013A", "EPOCH": "2025-12-17T13:48:02.835648", "MEAN_MOTION": 2.00562371, "ECCENTRICITY": 0.01072439, "INCLINATION": 53.197, "RA_OF_ASC_NODE": 211.6899, "ARG_OF_PERICENTER": 38.596, "MEAN_ANOMALY": 322.2597, "EPHEMERIS_TYPE": 0, "CLASSIFICATION_TYPE": "U", "NORAD_CAT_ID": 40534, "ELEMENT_SET_NO": 999, "REV_AT_EPOCH": 7818, "BSTAR": 0, "MEAN_MOTION_DOT": 8.5e-07, "MEAN_MOTION_DDOT": 0}, "tle": {"line1": "1 40534U 15013A   25351.57503282  .00000085  00000+0  00000+0 0  9995", "line2": "2 40534  53.1970 211.6899 0107243  38.5960 322.2597  2.00562371 78187"}}, "geometry": {"type": "Point", "coordinates": [19.546017649314948, 15.678018421978239]}}, {"type": "Feature", "properties": {"norad_id": 40544, "name": "GSAT0203 (GALILEO 7)", "group": "gnss", "lat": -21.001092950468607, "lon": -178.94079579602916, "alt_km": 23217.65825410599, "timestamp": "2025-12-18T07:01:54.831375+00:00", "meta": {"OBJECT_NAME": "GSAT0203 (GALILEO 7)", "OBJECT_ID": "2015-017A", "EPOCH": "2025-12-17T08:55:11.074944", "MEAN_MOTION": 1.7047611, "ECCENTRICITY": 0.00064774, "INCLINATION": 56.8452, "RA_OF_ASC_NODE": 346.5536, "ARG_OF_PERICENTER": 273.4606, "MEAN_ANOMALY": 86.4809, "EPHEMERIS_TYPE": 0, "CLASSIFICATION_TYPE": "U", "NORAD_CAT_ID": 40544, "ELEMENT_SET_NO": 999, "REV_AT_EPOCH": 6610, "BSTAR": 0, "MEAN_MOTION_DOT": -7.9e-07, "MEAN_MOTION_DDOT": 0}, "tle": {"line1": "1 40544U 15017A   25351.37165596 -.00000079  00000+0  00000+0 0  9994", "line2": "2 40544  56.8452 346.5536 0006477 273.4606  86.4809  1.70476110 66108"}}, "geometry": {"type": "Point", "coordinates": [-178.94079579602916, -21.001092950468607]}}, {"type": "Feature", "properties": {"norad_id": 40545, "name": "GSAT0204 (GALILEO 8)", "group": "gnss", "lat": 38.918699953892535, "lon": 18.39551629061164, "alt_km": 23232.16330258684, "timestamp": "2025-12-18T07:01:54.831387+00:00", "meta": {"OBJECT_NAME": "GSAT0204 (GALILEO 8)", "OBJECT_ID": "2015-017B", "EPOCH": "2025-12-14T16:39:40.338432", "MEAN_MOTION": 1.70475755, "ECCENTRICITY": 0.0006191, "INCLINATION": 56.8531, "RA_OF_ASC_NODE": 346.6443, "ARG_OF_PERICENTER": 264.523, "MEAN_ANOMALY": 95.425, "EPHEMERIS_TYPE": 0, "CLASSIFICATION_TYPE": "U", "NORAD_CAT_ID": 40545, "ELEMENT_SET_NO": 999, "REV_AT_EPOCH": 2910, "BSTAR": 0, "MEAN_MOTION_DOT": -8.5e-07, "MEAN_MOTION_DDOT": 0}, "tle": {"line1": "1 40545U 15017B   25348.69421688 -.00000085  00000+0  00000+0 0  9990", "line2": "2 40545  56.8531 346.6443 0006191 264.5230  95.4250  1.70475755 29105"}}, "geometry": {"type": "Point", "coordinates": [18.39551629061164, 38.918699953892535]}}, {"type": "Feature", "properties": {"norad_id": 40549, "name": "BEIDOU-3S IGSO-1S (C31)", "group": "gnss", "lat": -7.922398105475268, "lon": -69.2097069370669, "alt_km": 35921.5945565178, "timestamp": "2025-12-18T07:01:54.831401+00:00", "meta": {"OBJECT_NAME": "BEIDOU-3S IGSO-1S (C31)", "OBJECT_ID": "2015-019A", "EPOCH": "2025-12-16T22:00:09.125856", "MEAN_MOTION": 1.00292577, "ECCENTRICITY": 0.00363578, "INCLINATION": 49.5427, "RA_OF_ASC_NODE": 297.6612, "ARG_OF_PERICENTER": 193.8033, "MEAN_ANOMALY": 18.6613, "EPHEMERIS_TYPE": 0, "CLASSIFICATION_TYPE": "U", "NORAD_CAT_ID": 40549, "ELEMENT_SET_NO": 999, "REV_AT_EPOCH": 3924, "BSTAR": 0, "MEAN_MOTION_DOT": -1.91e-06, "MEAN_MOTION_DDOT": 0}, "tle": {"line1": "1 40549U 15019A   25350.91677229 -.00000191  00000+0  00000+0 0  9996", "line2": "2 40549  49.5427 297.6612 0036357 193.8033  18.6613  1.00292577 39245"}}, "geometry": {"type": "Point", "coordinates": [-69.2097069370669, -7.922398105475268]}}, {"type": "Feature", "properties": {"norad_id": 40730, "name": "GPS BIIF-10 (PRN 08)", "group": "gnss", "lat": 33.491977544662134, "lon": -56.907472324588106, "alt_km": 19893.7723916738, "timestamp": "2025-12-18T07:01:54.831413+00:00", "meta": {"OBJECT_NAME": "GPS BIIF-10 (PRN 08)", "OBJECT_ID": "2015-033A", "EPOCH": "2025-12-17T17:40:14.806272", "MEAN_MOTION": 2.00565457, "ECCENTRICITY": 0.01112676, "INCLINATION": 54.1263, "RA_OF_ASC_NODE": 274.5673, "ARG_OF_PERICENTER": 26.9306, "MEAN_ANOMALY": 333.6659, "EPHEMERIS_TYPE": 0, "CLASSIFICATION_TYPE": "U", "NORAD_CAT_ID": 40730, "ELEMENT_SET_NO": 999, "REV_AT_EPOCH": 7635, "BSTAR": 0, "MEAN_MOTION_DOT": -4.1e-07, "MEAN_MOTION_DDOT": 0}, "tle": {"line1": "1 40730U 15033A   25351.73628248 -.00000041  00000+0  00000+0 0  9996", "line2": "2 40730  54.1263 274.5673 0111267  26.9306 333.6659  2.00565457 76355"}}, "geometry": {"type": "Point", "coordinates": [-56.907472324588106, 33.491977544662134]}}, {"type": "Feature", "properties": {"norad_id": 40748, "name": "BEIDOU-3S M2S (C58)", "group": "gnss", "lat": -40.40270333665207, "lon": -88.27327482617265, "alt_km": 21506.51015574467, "timestamp": "2025-12-18T07:01:54.831425+00:00", "meta": {"OBJECT_NAME": "BEIDOU-3S M2S (C58)", "OBJECT_ID": "2015-037A", "EPOCH": "2025-12-11T22:15:26.437248", "MEAN_MOTION": 1.8622897, "ECCENTRICITY": 0.00123447, "INCLINATION": 55.0397, "RA_OF_ASC_NODE": 308.4912, "ARG_OF_PERICENTER": 267.8245, "MEAN_ANOMALY": 92.025, "EPHEMERIS_TYPE": 0, "CLASSIFICATION_TYPE": "U", "NORAD_CAT_ID": 40748, "ELEMENT_SET_NO": 999, "REV_AT_EPOCH": 7063, "BSTAR": 0, "MEAN_MOTION_DOT": -8.9e-07, "MEAN_MOTION_DDOT": 0}, "tle": {"line1": "1 40748U 15037A   25345.92738932 -.00000089  00000+0  00000+0 0  9997", "line2": "2 40748  55.0397 308.4912 0012344 267.8245  92.0250  1.86228970 70636"}}, "geometry": {"type": "Point", "coordinates": [-88.27327482617265, -40.40270333665207]}}, {"type": "Feature", "properties": {"norad_id": 40749, "name": "BEIDOU-3S M1S (C57)", "group": "gnss", "lat": 21.04593916914139, "lon": 112.62889943854276, "alt_km": 21532.004262274026, "timestamp": "2025-12-18T07:01:54.831436+00:00", "meta": {"OBJECT_NAME": "BEIDOU-3S M1S (C57)", "OBJECT_ID": "2015-037B", "EPOCH": "2025-12-11T14:53:54.000096", "MEAN_MOTION": 1.86253918, "ECCENTRICITY": 0.00034406, "INCLINATION": 55.0364, "RA_OF_ASC_NODE": 308.4915, "ARG_OF_PERICENTER": 358.1692, "MEAN_ANOMALY": 1.8205, "EPHEMERIS_TYPE": 0, "CLASSIFICATION_TYPE": "U", "NORAD_CAT_ID": 40749, "ELEMENT_SET_NO": 999, "REV_AT_EPOCH": 7063, "BSTAR": 0, "MEAN_MOTION_DOT": -8.8e-07, "MEAN_MOTION_DDOT": 0}, "tle": {"line1": "1 40749U 15037B   25345.62076389 -.00000088  00000+0  00000+0 0  9995", "line2": "2 40749  55.0364 308.4915 0003440 358.1692   1.8205  1.86253918 70639"}}, "geometry": {"type": "Point", "coordinates": [112.62889943854276, 21.04593916914139]}}, {"type": "Feature", "properties": {"norad_id": 40889, "name": "GSAT0205 (GALILEO 9)", "group": "gnss", "lat": -8.843255740521506, "lon": 52.86936263506612, "alt_km": 23239.27322518505, "timestamp": "2025-12-18T07:01:54.831447+00:00", "meta": {"OBJECT_NAME": "GSAT0205 (GALILEO 9)", "OBJECT_ID": "2015-045A", "EPOCH": "2025-12-13T06:56:57.536448", "MEAN_MOTION": 1.70473165, "ECCENTRICITY": 0.00060191, "INCLINATION": 55.0031, "RA_OF_ASC_NODE": 226.743, "ARG_OF_PERICENTER": 39.8542, "MEAN_ANOMALY": 320.2702, "EPHEMERIS_TYPE": 0, "CLASSIFICATION_TYPE": "U", "NORAD_CAT_ID": 40889, "ELEMENT_SET_NO": 999, "REV_AT_EPOCH": 6384, "BSTAR": 0, "MEAN_MOTION_DOT": 2.2e-07, "MEAN_MOTION_DDOT": 0}, "tle": {"line1": "1 40889U 15045A   25347.28955482  .00000022  00000+0  00000+0 0  9990", "line2": "2 40889  55.0031 226.7430 0006019  39.8542 320.2702  1.70473165 63847"}}, "geometry": {"type": "Point", "coordinates": [52.86936263506612, -8.843255740521506]}}, {"type": "Feature", "properties": {"norad_id": 40890, "name": "GSAT0206 (GALILEO 10)", "group": "gnss", "lat": 42.35631749630141, "lon": -93.7244868253618, "alt_km": 23205.83835621796, "timestamp": "2025-12-18T07:01:54.831459+00:00", "meta": {"OBJECT_NAME": "GSAT0206 (GALILEO 10)", "OBJECT_ID": "2015-045B", "EPOCH": "2025-12-14T16:24:04.185792", "MEAN_MOTION": 1.70473242, "ECCENTRICITY": 0.00039786, "INCLINATION": 55.0018, "RA_OF_ASC_NODE": 226.6995, "ARG_OF_PERICENTER": 38.8814, "MEAN_ANOMALY": 321.2332, "EPHEMERIS_TYPE": 0, "CLASSIFICATION_TYPE": "U", "NORAD_CAT_ID": 40890, "ELEMENT_SET_NO": 999, "REV_AT_EPOCH": 6389, "BSTAR": 0, "MEAN_MOTION_DOT": 3.4e-07, "MEAN_MOTION_DDOT": 0}, "tle": {"line1": "1 40890U 15045B   25348.68338178  .00000034  00000+0  00000+0 0  9997", "line2": "2 40890  55.0018 226.6995 0003978  38.8814 321.2332  1.70473242 63892"}}, "geometry": {"type": "Point", "coordinates": [-93.7244868253618, 42.35631749630141]}}]}